XW-3 (CAS-9)            
1 50466U 21131B   24314.22029270  .00003497  00000+0  11186-2 0  9998
2 50466  98.5220  38.6134 0004993  61.8879 298.2814 14.40229450150874
GREENCUBE               
1 53106U 22080B   24311.84817994 -.00000003  00000+0  00000+0 0  9990
2 53106  70.1285 142.9654 0008356  75.5452 284.6135  6.42557804 54437
CAS-5A (FO-118)         
1 54684U 22167C   24314.14908569  .00144680  00000+0  25897-2 0  9996
2 54684  97.6157 104.1740 0008304 339.8852  20.2070 15.49415842106577
STRATOSAT-TK 1 (RS52S)  
1 57167U 23091B   24314.22688719  .00059064  00000+0  26001-2 0  9992
2 57167  97.5909   7.5354 0012527 343.0428  17.0387 15.21553628 75536
UMKA 1 (RS40S)          
1 57172U 23091G   24314.22301201  .00020093  00000+0  12028-2 0  9990
2 57172  97.5927   4.9470 0015568 351.2366   8.8589 15.10951444 75361
CUBESX-HSE 3 (RS42S)    
1 57178U 23091N   24314.18959557  .00029753  00000+0  16422-2 0  9998
2 57178  97.5957   5.8402 0015338 343.6738  16.3997 15.13791301 75407
MONITOR-4 (RS57S)       
1 57182U 23091S   24314.10506031  .00024682  00000+0  13974-2 0  9995
2 57182  97.5946   5.4156 0015898 345.3046  14.7720 15.12914544 75371
MONITOR-2 (RS39S)       
1 57184U 23091U   24314.12897484  .00014286  00000+0  86636-3 0  9999
2 57184  97.5957   5.2677 0012902 342.4049  17.6732 15.10587457 75366
SVYATOBOR 1 (RS60S)     
1 57187U 23091X   24314.09006351  .00022529  00000+0  12639-2 0  9993
2 57187  97.5959   6.0937 0012064 337.8336  22.2372 15.13308431 75419
VIZARD-METEO (RS38S)    
1 57189U 23091Z   24314.13575348  .00029053  00000+0  15184-2 0  9994
2 57189  97.5948   6.9046 0010698 334.2963  25.7737 15.15788351 75471
NANOZOND 1 (RS49S)      
1 57190U 23091AA  24314.12554264  .00045822  00000+0  20522-2 0  9993
2 57190  97.5912   8.1296 0008863 336.0499  24.0323 15.21072067 75560
POLYTECH-UNIVERSE 3 (R*)
1 57191U 23091AB  24314.13570061  .00014909  00000+0  90152-3 0  9997
2 57191  97.5926   4.8913 0018413 357.7145   2.3997 15.10610348 75356
UTMN 2 (RS27S)          
1 57203U 23091AP  24314.12311043  .00025283  00000+0  13564-2 0  9991
2 57203  97.5943   6.6107 0011181 334.6001  25.4680 15.14886413 75452
ARCCUBE 1 (RS25S)       
1 57205U 23091AR  24314.13367794  .00058548  00000+0  24063-2 0  9994
2 57205  97.5868   8.5690 0008683 335.3396  24.7424 15.23926393 75603
KUZGTU 1 (RS47S)        
1 57217U 23091AV  24314.21783973  .00029234  00000+0  16274-2 0  9992
2 57217  97.5937   5.6409 0015348 345.3362  14.7421 15.13489806 75405
SONATE-2                
1 59112U 24043Q   24313.61882875  .00032062  00000+0  12779-2 0  9999
2 59112  97.4935  76.5949 0013495 146.5703 213.6389 15.25061775 37769
MESAT1                  
1 60209U 24125G   24313.86021604  .00034390  00000+0  13623-2 0  9996
2 60209  97.3028 163.1701 0023443 171.5981 188.5655 15.25076836 19411
OOV-CUBE (TUBSAT-30)    
1 60240U 24128F   24313.69742230  .00009215  00000+0  78893-3 0  9999
2 60240  61.9973 100.5279 0023266 355.5782   4.5097 14.97948209 18240
CUTE-1 (CO-55)          
1 27844U 03031E   24313.68315121  .00001754  00000+0  78820-3 0  9996
2 27844  98.6790 318.7477 0010854  85.8531 274.3888 14.23624317108340
CUBESAT XI-IV (CO-57)   
1 27848U 03031J   24313.53566925  .00001485  00000+0  67833-3 0  9997
2 27848  98.6821 318.7602 0010719 101.1558 259.0826 14.23013852108067
CUBESAT XI-V            
1 28895U 05043F   24314.11338035  .00007797  00000+0  13273-2 0  9999
2 28895  98.2215  90.4645 0014255 259.0675 100.8927 14.69276135 15951
CUTE-1.7+APD II (CO-65) 
1 32785U 08021C   24314.15126248  .00016571  00000+0  13281-2 0  9995
2 32785  97.7733 278.7177 0009949 201.1297 158.9516 15.00160787897256
AAUSAT-II               
1 32788U 08021F   24313.51224031  .00084177  00000+0  27037-2 0  9997
2 32788  97.6048 295.4914 0007200  61.3601 298.8364 15.31933953900397
CANX-2                  
1 32790U 08021H   24313.37885184  .00014395  00000+0  12177-2 0  9990
2 32790  97.7862 276.5350 0010433 202.6381 157.4382 14.98108313896936
SEEDS II (CO-66)        
1 32791U 08021J   24313.88543582  .00034863  00000+0  21529-2 0  9993
2 32791  97.7074 284.8987 0005563 147.1870 212.9705 15.09784049898380
SWISSCUBE               
1 35932U 09051B   24314.15890532  .00005581  00000+0  11682-2 0  9992
2 35932  98.4489 200.2931 0005824 224.3526 135.7207 14.60159537803744
BEESAT-1                
1 35933U 09051C   24314.12766583  .00004844  00000+0  10248-2 0  9996
2 35933  98.4416 200.9684 0004156 238.7178 121.3615 14.59744672803849
ITUPSAT1                
1 35935U 09051E   24314.11195256  .00004411  00000+0  95708-3 0  9995
2 35935  98.4517 200.6525 0006399 249.6160 110.4352 14.58623585803415
TISAT 1                 
1 36799U 10035E   24313.64128974  .00028692  00000+0  18590-2 0  9998
2 36799  98.0697 209.6764 0006510  95.0457 265.1512 15.08066466778782
AEROCUBE 4.5A           
1 38767U 12048K   24313.68610916  .00048939  00000+0  19984-2 0  9991
2 38767  64.6530 207.1769 0110065 331.4724  28.0403 15.18652325282339
AEROCUBE 4.5B           
1 38768U 12048L   24313.85436614  .00131333  00000+0  23336-2 0  9999
2 38768  64.6473 117.6101 0073255 317.4904  42.0575 15.46532123283605
STRAND-1                
1 39090U 13009E   24313.97494321  .00001792  00000+0  62571-3 0  9998
2 39090  98.3787 138.3226 0008770 173.3073 186.8233 14.36439874613040
BRITE-AUSTRIA           
1 39091U 13009F   24313.77399187  .00001226  00000+0  43599-3 0  9992
2 39091  98.3837 137.4021 0010149 182.0767 178.0379 14.36054926613012
NEE-01 PEGASO           
1 39151U 13018B   24313.30721355  .00010936  00000+0  11926-2 0  9990
2 39151  98.0511  72.1597 0013394 290.8657  69.1124 14.88068036623382
ESTCUBE 1               
1 39161U 13021C   24313.90400384  .00007738  00000+0  10779-2 0  9998
2 39161  97.8117  15.9676 0009847 117.8424 242.3786 14.77994057618497
POPACS 1                
1 39268U 13055D   24313.83440807  .00083560  66570-6  11813-2 0  9997
2 39268  80.9809 343.2141 0341130 341.8210  17.1049 15.10322967582220
POPACS 2                
1 39269U 13055E   24313.80314402  .00036320  00000+0  79646-3 0  9996
2 39269  80.9996  81.5914 0521888 239.6123 115.2519 14.64023878576700
POPACS 3                
1 39270U 13055F   24313.52595021  .00017545  00000+0  46301-3 0  9995
2 39270  81.0054 137.6331 0610573  36.3144 327.7902 14.41466843553721
ZACUBE-1 (TSHEPISOSAT)  
1 39417U 13066B   24314.11637621  .00016988  00000+0  16186-2 0  9996
2 39417  97.7526 267.2460 0049485  42.2403 318.2612 14.92503812593177
WNISAT-1                
1 39423U 13066H   24313.78621482  .00004556  00000+0  86521-3 0  9992
2 39423  97.6661 136.4615 0166651 275.0990  83.1208 14.56084708581471
TRITON-1                
1 39427U 13066M   24314.01406212  .00013688  00000+0  18217-2 0  9997
2 39427  97.8373 227.4807 0098310 336.2938  23.3758 14.76444539587756
DELFI-N3XT              
1 39428U 13066N   24313.68217289  .00026980  00000+0  30964-2 0  9996
2 39428  97.8336 228.5345 0093438 340.5333  19.2320 14.82671064587467
GOMX-1                  
1 39430U 13066Q   24314.13318667  .00007557  00000+0  12113-2 0  9997
2 39430  97.7074 179.7081 0136899 150.7984 210.0964 14.65837894584260
CUBEBUG-2 (LO-74)       
1 39440U 13066AA  24314.08801884  .00011690  00000+0  12797-2 0  9991
2 39440  97.8264 254.9663 0066943 157.9397 202.4724 14.86295667591035
NEE-02 KRYSAOR          
1 39441U 13066AB  24313.82720878  .00008061  00000+0  97522-3 0  9994
2 39441  97.8338 249.9368 0071505 183.6239 176.4466 14.82108874590508
FUNCUBE-1 (AO-73)       
1 39444U 13066AE  24313.62363304  .00024318  00000+0  21003-2 0  9995
2 39444  97.7375 270.3437 0045500  23.0069 337.3177 14.96411016591676
UWE-3                   
1 39446U 13066AG  24313.82418988  .00013652  00000+0  14051-2 0  9992
2 39446  97.7978 260.8451 0059404 102.6515 258.1353 14.89083132590799
BRITE-CA1 (TORONTO)     
1 40020U 14033L   24313.95079622  .00004040  00000+0  64127-3 0  9990
2 40020  97.8979  86.2484 0081459 350.6148   9.3532 14.70468206556245
DUCHIFAT-1              
1 40021U 14033M   24314.23625511  .00051975  00000+0  27480-2 0  9996
2 40021  98.1008 306.3496 0010145 344.3662  15.7254 15.15237028566022
NANOSATC-BR1            
1 40024U 14033Q   24314.20155928  .00036761  00000+0  22920-2 0  9996
2 40024  98.0800 293.0150 0008086  56.9776 303.2227 15.09408297565593
QB50P1                  
1 40025U 14033R   24314.15184469  .00023243  00000+0  16686-2 0  9996
2 40025  98.0607 280.2405 0014148  58.8267 301.4343 15.04232116565142
QB50P2                  
1 40032U 14033Y   24314.12375042  .00022089  00000+0  16545-2 0  9991
2 40032  98.0164 270.8661 0009985  12.3529 347.7938 15.02681993564923
PERSEUS-M2              
1 40037U 14033AD  24314.17560487  .00008412  00000+0  83359-3 0  9992
2 40037  97.9353 245.6487 0014707  78.2685 282.0183 14.91986809563938
PERSEUS-M1              
1 40039U 14033AF  24314.08485738  .00008517  00000+0  84690-3 0  9994
2 40039  97.9122 241.1851 0014453  78.0147 282.2690 14.91849212563783
POLYITAN-1              
1 40042U 14033AJ  24313.88136268  .00033436  00000+0  21114-2 0  9995
2 40042  98.0867 284.8186 0012604  18.6617 341.5069 15.08927266564604
TIGRISAT                
1 40043U 14033AK  24313.91919969  .00010433  00000+0  13264-2 0  9996
2 40043  97.7105 110.7043 0053272 190.6293 169.3798 14.80785272559160
AEROCUBE 6A             
1 40045U 14033AM  24313.72063598  .00020582  00000+0  22330-2 0  9995
2 40045  97.6774 121.9185 0046970 165.1298 195.1312 14.87361698559240
AEROCUBE 6B             
1 40046U 14033AN  24313.73497222  .00021365  00000+0  22641-2 0  9997
2 40046  97.6744 120.7779 0045734 159.7064 200.5984 14.88344616559317
